C/2015 X8 (NEOWISE),e,155.2009,191.1544,20.4159,19.76042,0.0112204,0.94002241,18.7575,05/22.0/2020,2000,g 16.0,4.0
# From MPC109143
C/2015 Y1 (LINEAR),e,71.1696,135.8150,24.6872,251.9793,0.0002464,0.99001260,0.0000,05/14.0995/2016,2000,g 12.0,4.0
# From MPC105543
C/2015 YG1 (NEOWISE),e,57.2824,350.5421,102.5016,17.00337,0.0140573,0.87851747,23.8732,05/22.0/2020,2000,g 13.0,4.0
# From MPC119995
C/2016 A1 (PANSTARRS),h,11/22.9174/2017,121.2051,128.2047,10.2786,1.001827,5.325033,2000,6.0,4.0
# From MPC100282
P/2016 A2 (Christensen),e,26.4070,291.6140,141.6088,4.749668,0.0952158,0.27107670,171.1070,05/22.0/2020,2000,g 11.5,4.0
# From MPC115881
P/2016 A3 (PANSTARRS),e,8.5112,187.2979,340.8836,7.890057,0.0444717,0.38791266,49.7392,05/22.0/2020,2000,g 10.0,4.0
# From MPC109143
C/2016 A5 (PANSTARRS),e,40.2404,136.1798,321.5124,650.2773,0.0000594,0.99547378,0.0000,06/26.7549/2015,2000,g 13.5,4.0
# From MPC109143
C/2016 A6 (PANSTARRS),e,120.9355,300.3750,141.0605,206.5414,0.0003320,0.98835471,0.0000,11/06.4067/2015,2000,g 15.0,4.0
# From MPC102098
P/2016 A7 (PANSTARRS),e,16.6273,221.4790,352.6303,5.030787,0.0873474,0.56557630,135.2029,05/22.0/2020,2000,g 16.0,4.0
# From MPC106345
C/2016 A8 (LINEAR),e,148.2429,111.3320,130.3691,34.27501,0.0049118,0.94497129,6.6875,05/22.0/2020,2000,g 12.0,4.0
# From MPC107048
C/2016 B1 (NEOWISE),e,50.4650,231.9802,8.6743,442.0486,0.0001060,0.99273051,0.0000,12/04.7877/2016,2000,g  9.5,4.0
# From MPC109143
P/2016 BA14 (PANSTARRS),e,18.8961,180.5350,351.9057,3.024260,0.1874025,0.66524598,286.6645,05/22.0/2020,2000,g 21.0,4.0
# From MPC110494
C/2016 C1 (PANSTARRS),h,02/19.0552/2016,56.2192,181.8039,328.7701,1.002390,8.466741,2000,5.5,4.0
# From MPC101098
C/2016 C2 (NEOWISE),e,38.0809,24.4238,214.5439,65.95388,0.0018401,0.97625002,0.0000,04/19.5445/2016,2000,g 16.0,4.0
# From MPC110494
C/2016 E1 (PANSTARRS),h,06/04.1653/2017,131.8913,233.0607,47.4652,1.005720,8.179853,2000,6.5,4.0
# From MPC 99821
C/2016 E2 (Kowalski),e,135.9065,186.8514,321.9333,139.9397,0.0005954,0.99231110,0.0000,02/06.8486/2016,2000,g 20.0,4.0
# From MPC102098
P/2016 G1 (PANSTARRS),e,10.9690,204.0594,111.2893,2.582426,0.2374992,0.21095461,287.6949,05/22.0/2020,2000,g 14.0,4.0
# From MPEC 2017-D91
P/2016 J1-A (PANSTARRS),e,14.3247,199.8277,46.8742,3.174163,0.1742851,0.22820145,248.5891,05/22.0/2020,2000,g 16.5,4.0
# From MPEC 2017-A77
P/2016 J1-B (PANSTARRS),e,14.3275,199.8325,46.7653,3.173793,0.1743156,0.22805252,248.7073,05/22.0/2020,2000,g 17.0,4.0
# From MPC101099
C/2016 J2 (Denneau),e,130.3370,186.3604,318.6363,634.2720,0.0000617,0.99760201,0.0000,04/12.1500/2016,2000,g 17.0,4.0
# From MPC102099
C/2016 KA (Catalina),e,104.6844,317.5087,63.1956,6142,0.0000020,0.99911977,0.0000,02/02.2582/2016,2000,g  8.5,4.0
# From MPC104792
C/2016 K1 (LINEAR),e,90.9206,325.6270,18.2788,27827,0.0000002,0.99991757,0.0000,07/13.3136/2016,2000,g 13.0,4.0
# From MPC119995
C/2016 M1 (PANSTARRS),e,90.9998,92.2035,209.8741,3976,0.0000039,0.99944376,0.0000,08/10.2921/2018,2000,g  5.0,4.0
# From MPC115881
C/2016 N4 (MASTER),e,72.5948,354.0020,55.9388,2391,0.0000084,0.99866229,0.0000,09/16.4707/2017,2000,g  8.5,4.0
# From MPC119995
C/2016 N6 (PANSTARRS),e,105.8408,298.9893,162.7643,1756,0.0000134,0.99848069,0.0000,07/18.1091/2018,2000,g  7.0,4.0
# From MPC102099
P/2016 P1 (PANSTARRS),e,24.4549,319.5642,270.0528,3.194779,0.1726008,0.28936067,293.7046,05/22.0/2020,2000,g 15.0,4.0
# From MPC102099
C/2016 P4 (PANSTARRS),e,29.8811,320.7357,356.1602,395.9792,0.0001251,0.98511819,0.0000,10/17.9818/2016,2000,g 10.5,4.0
# From MPC118093
C/2016 Q2 (PANSTARRS),e,109.3896,322.2996,84.4977,16685,0.0000005,0.99957551,0.0000,05/11.5040/2021,2000,g  6.0,4.0
# From MPC102955
C/2016 Q4 (Kowalski),e,7.2576,271.2849,99.3973,16.89715,0.0141900,0.58067606,12.0081,05/22.0/2020,2000,g  7.0,4.0
# From MPC119995
C/2016 R2 (PANSTARRS),e,58.2248,80.5695,33.1847,561.6324,0.0000741,0.99536507,0.0000,05/09.3363/2018,2000,g  7.0,4.0
# From MPC102099
C/2016 R3 (Borisov),e,53.0428,78.6605,118.1955,200.0641,0.0003483,0.99774201,0.0000,10/10.4782/2016,2000,g 18.0,4.0
# From MPC109144
P/2016 R4 (Gibbs),e,10.8690,168.2840,173.9969,5.331532,0.0800619,0.47599631,112.1472,05/22.0/2020,2000,g 12.5,4.0
# From MPC105543
P/2016 S1 (PANSTARRS),e,94.6533,227.5224,273.2703,8.279357,0.0413723,0.71015118,48.1049,05/22.0/2020,2000,g 12.0,4.0
# From MPC105238
C/2016 T1 (Matheny),e,129.8470,56.2810,137.4055,123.6612,0.0007167,0.98137152,0.0000,02/01.2803/2017,2000,g 14.5,4.0
# From MPC107685
C/2016 T2 (Matheny),e,81.3702,339.1532,92.2464,99.13445,0.0009985,0.98076639,0.0000,12/29.0274/2016,2000,g 14.5,4.0
# From MPC110082
C/2016 T3 (PANSTARRS),e,22.6773,271.7418,194.6750,133.6053,0.0006382,0.98016403,0.0000,09/06.5701/2017,2000,g 10.5,4.0
# From MPC103847
C/2016 U1 (NEOWISE),h,01/14.0106/2017,46.3881,61.4708,162.8322,1.000401,0.321911,2000,17.0,4.0
# From MPC106345
C/2016 VZ18 (PANSTARRS),e,23.9861,98.9218,36.4191,169.5907,0.0004463,0.99461053,0.0000,03/06.1245/2017,2000,g 19.5,4.0
# From MPC106345
P/2016 WM48 (Lemmon),e,117.4234,59.9019,36.0848,8.168835,0.0422147,0.78408680,49.9305,05/22.0/2020,2000,g 15.0,4.0
# From MPC119995
C/2016 X1 (Lemmon),e,26.4544,256.4208,224.5229,1385,0.0000191,0.99454047,0.0000,04/29.1048/2019,2000,g  6.0,4.0
# From MPC108594
C/2017 A1 (PANSTARRS),e,49.7922,121.0443,2.0575,77.09433,0.0014560,0.97026785,0.0000,05/16.4361/2017,2000,g 13.0,4.0
# From MPC108594
C/2017 A3 (Elenin),e,98.5373,97.9078,304.0440,43.48570,0.0034370,0.91147724,4.1493,05/22.0/2020,2000,g  9.5,4.0
# From MPC114598
C/2017 AB5 (PANSTARRS),e,32.4351,42.6587,78.3544,2710,0.0000070,0.99659967,0.0000,02/16.2510/2018,2000,g  5.5,4.0
# From MPC119995
C/2017 B3 (LINEAR),h,02/02.6315/2019,54.1752,2.1794,284.7794,1.001909,3.921926,2000,6.0,4.0
# From MPC103847
P/2017 B4 (PANSTARRS),e,20.0584,121.4578,11.0197,4.410520,0.1064068,0.36495152,359.9130,01/05.0/2017,2000,g 14.5,4.0
# From MPC104793
C/2017 C1 (NEOWISE),e,65.7474,357.5017,110.1203,20.61292,0.0105316,0.92718685,12.8439,05/22.0/2020,2000,g 18.0,4.0
# From MPC107685
C/2017 C2 (PANSTARRS),e,118.5885,249.8070,138.6460,97.16604,0.0010290,0.97504556,0.0000,01/21.6039/2017,2000,g 14.0,4.0
# From MPC104793
P/2017 D1 (Fuls),e,20.7583,82.1792,8.0984,4.829948,0.0928518,0.43657430,132.4643,05/22.0/2020,2000,g 14.0,4.0
# From MPC112391
C/2017 D2 (Barros),e,31.2566,330.9757,334.4641,3180,0.0000055,0.99921752,0.0000,07/14.8400/2017,2000,g 11.0,4.0
# From MPC114598
C/2017 D3 (ATLAS),h,04/27.2716/2017,125.5786,186.6541,340.8567,1.002047,4.974017,2000,8.0,4.0
# From MPC110495
P/2017 D4 (PANSTARRS),e,10.5290,264.9387,212.3226,7.568346,0.0473372,0.62858854,64.0968,05/22.0/2020,2000,g 13.0,4.0
# From MPC104794
C/2017 D5 (PANSTARRS),e,131.0590,92.7350,287.7823,114.9452,0.0007998,0.98118530,0.0000,01/09.3766/2017,2000,g 16.0,4.0
# From MPC106346
C/2017 E1 (Borisov),h,04/10.5169/2017,14.5669,142.6007,152.6299,1.003004,0.900819,2000,14.0,4.0
# From MPC109144
C/2017 E2 (Tsuchinshan),e,79.0474,11.5849,89.3849,21.53929,0.0098595,0.89083062,14.5081,05/22.0/2020,2000,g 11.5,4.0
# From MPC115882
C/2017 E3 (PANSTARRS),h,06/08.1572/2017,70.6275,220.7316,334.5193,1.006986,5.937407,2000,6.5,4.0
# From MPC105239
C/2017 E4 (Lovejoy),h,04/23.5724/2017,88.1165,223.0943,87.0703,1.001503,0.491391,2000,17.0,4.0
# From MPC105239
C/2017 E5 (Lemmon),e,122.6630,206.3019,306.8983,389.4543,0.0001282,0.99540835,0.0000,06/10.5735/2016,2000,g 13.0,4.0
# From MPC111769
C/2017 F1 (Lemmon),h,11/30.5170/2017,146.4684,158.7817,64.7811,1.004093,4.497181,2000,10.5,4.0
# From MPC114598
C/2017 F2 (PANSTARRS),h,11/27.7449/2017,42.5124,38.6704,135.0494,1.004332,6.931906,2000,7.5,4.0
# From MPC104794
P/2017 G1 (PANSTARRS),e,4.7738,249.6270,224.5744,7.291709,0.0500565,0.65314144,74.3215,05/22.0/2020,2000,g 13.5,4.0
# From MPC108595
P/2017 G2 (PANSTARRS),e,47.9487,79.7923,105.5918,8.075648,0.0429475,0.64852662,46.1652,05/22.0/2020,2000,g 13.0,4.0
# From MPC109144
C/2017 G3 (PANSTARRS),e,159.0589,279.4803,73.1506,309.2817,0.0001812,0.99162199,0.0000,04/15.5096/2017,2000,g 14.0,4.0
# From MPC115882
C/2017 K1 (PANSTARRS),h,03/17.0606/2018,154.0103,225.6529,4.3730,1.001550,7.289092,2000,7.0,4.0
# From MPC119995
C/2017 K2 (PANSTARRS),h,12/19.9939/2022,87.5427,88.2665,236.1573,1.000422,1.799715,2000,1.5,4.0
# From MPC106346
P/2017 K3 (Gasparovic),e,4.2746,354.2978,253.4373,5.580387,0.0747666,0.58084644,81.2217,05/22.0/2020,2000,g 14.5,4.0
# From MPC114598
C/2017 K4 (ATLAS),e,16.6804,298.8688,15.2034,28.43666,0.0064996,0.90682415,5.6198,05/22.0/2020,2000,g 10.0,4.0
# From MPC119995
C/2017 K5 (PANSTARRS),h,03/24.8180/2020,82.2594,102.3740,171.8784,1.006759,7.678752,2000,5.0,4.0
# From MPC114599
C/2017 K6 (Jacques),e,57.2540,85.0512,303.7685,1056,0.0000287,0.99810582,0.0000,01/03.2289/2018,2000,g 11.0,4.0
# From MPC110083
C/2017 M3 (PANSTARRS),e,77.5355,7.0068,110.3572,167.5688,0.0004544,0.97220055,0.0000,04/28.1761/2017,2000,g 10.5,4.0
# From MPC118093
C/2017 M4 (ATLAS),h,01/17.8800/2019,105.6445,65.8648,167.5679,1.001154,3.251811,2000,6.0,4.0
# From MPC118841
C/2017 M5 (TOTAS),h,06/03.8331/2018,15.8815,216.2754,92.7270,1.005116,5.991819,2000,6.5,4.0
# From MPC114599
C/2017 O1 (ASASSN),e,39.8794,25.7773,20.8556,357.8980,0.0001456,0.99581965,0.0000,10/14.7380/2017,2000,g 11.0,4.0
# From MPC114599
P/2017 P1 (PANSTARRS),e,7.6988,221.4013,122.1998,7.888814,0.0444822,0.31037001,31.3137,05/22.0/2020,2000,g 10.0,4.0
# From MPC114599
C/2017 P2 (PANSTARRS),e,50.0598,165.5061,132.3187,1929,0.0000116,0.99872276,0.0000,12/06.6877/2017,2000,g 10.0,4.0
# From MPC114599
P/2017 R1 (PANSTARRS),e,2.5736,143.6221,178.5227,4.134891,0.1172217,0.19557926,133.4648,05/22.0/2020,2000,g 13.5,4.0
# From MPC108595
C/2017 S2 (PANSTARRS),e,12.6801,62.4150,305.9366,20.50829,0.0106123,0.82388883,10.5755,05/22.0/2020,2000,g 13.0,4.0
# From MPC114599
C/2017 S3 (PANSTARRS),h,08/15.9641/2018,99.1024,171.1317,255.8420,1.000049,0.208396,2000,11.0,4.0
# From MPC114599
